0 DELTA 1 DEB
1 10234U 77065BM  13282.23422898  .00007402  00000-0  95587-3 0  1182
2 10234 028.9418 202.4411 0496184 296.8305 230.3456 14.19233453812383
0 DELTA 1 DEB
1 10234U 77065BM  13284.20367352  .00007211  00000-0  93167-3 0  1195
2 10234 028.9411 191.1553 0496036 315.0648 212.7916 14.19253291812665
0 DELTA 1 DEB
1 10234U 77065BM  13286.85648568  .00006611  00000-0  85343-3 0  1201
2 10234 028.9406 175.9537 0495876 339.6477 086.9703 14.19283251813041
0 DELTA 1 DEB
1 10234U 77065BM  13289.12607473  .00008778  00000-0  11398-2 0  1219
2 10234 028.9395 162.9479 0495744 000.6739 163.3743 14.19317855813366
0 DELTA 1 DEB
1 10234U 77065BM  13291.09522300  .00008111  00000-0  10517-2 0  1227
2 10234 028.9385 151.6625 0495712 018.9108 144.9206 14.19345398813643
0 DELTA 1 DEB
1 10234U 77065BM  13293.82542932  .00009097  00000-0  11813-2 0  1238
2 10234 028.9372 136.0144 0495644 044.1935 055.5098 14.19383047814038
0 DELTA 1 DEB
1 10234U 77065BM  13295.87203527  .00010615  00000-0  13813-2 0  1240
2 10234 028.9374 124.2834 0495463 063.1420 073.3609 14.19415022814321
